[{"OBJECT_NAME":"STARLINK-6351","OBJECT_ID":"2023-094Y","EPOCH":"2025-07-29T04:11:36.824928","MEAN_MOTION":15.02537186,"ECCENTRICITY":0.0001014,"INCLINATION":43.0027,"RA_OF_ASC_NODE":152.1747,"ARG_OF_PERICENTER":271.7792,"MEAN_ANOMALY":88.2934,"EPHEMERIS_TYPE":0,"CLASSIFICATION_TYPE":"U","NORAD_CAT_ID":57240,"ELEMENT_SET_NO":999,"REV_AT_EPOCH":11382,"BSTAR":2.1626e-5,"MEAN_MOTION_DOT":8.9e-7,"MEAN_MOTION_DDOT":0},{"OBJECT_NAME":"STARLINK-6349","OBJECT_ID":"2023-094Z","EPOCH":"2025-07-29T22:03:48.520512","MEAN_MOTION":15.02540922,"ECCENTRICITY":0.0001076,"INCLINATION":43.0041,"RA_OF_ASC_NODE":148.3069,"ARG_OF_PERICENTER":262.9618,"MEAN_ANOMALY":97.1102,"EPHEMERIS_TYPE":0,"CLASSIFICATION_TYPE":"U","NORAD_CAT_ID":57241,"ELEMENT_SET_NO":999,"REV_AT_EPOCH":11375,"BSTAR":7.4324e-6,"MEAN_MOTION_DOT":-1.03e-6,"MEAN_MOTION_DDOT":0},{"OBJECT_NAME":"STARLINK-6306","OBJECT_ID":"2023-094AA","EPOCH":"2025-07-29T12:24:38.754144","MEAN_MOTION":15.0253407,"ECCENTRICITY":9.48e-5,"INCLINATION":43.0023,"RA_OF_ASC_NODE":150.4457,"ARG_OF_PERICENTER":268.0268,"MEAN_ANOMALY":92.0466,"EPHEMERIS_TYPE":0,"CLASSIFICATION_TYPE":"U","NORAD_CAT_ID":57242,"ELEMENT_SET_NO":999,"REV_AT_EPOCH":11369,"BSTAR":1.614e-5,"MEAN_MOTION_DOT":1.5e-7,"MEAN_MOTION_DDOT":0},{"OBJECT_NAME":"STARLINK-6346","OBJECT_ID":"2023-094AB","EPOCH":"2025-07-29T12:27:50.421312","MEAN_MOTION":15.02534422,"ECCENTRICITY":9.81e-5,"INCLINATION":43.0047,"RA_OF_ASC_NODE":150.4604,"ARG_OF_PERICENTER":267.2129,"MEAN_ANOMALY":92.8601,"EPHEMERIS_TYPE":0,"CLASSIFICATION_TYPE":"U","NORAD_CAT_ID":57243,"ELEMENT_SET_NO":999,"REV_AT_EPOCH":11369,"BSTAR":7.2042e-5,"MEAN_MOTION_DOT":7.7e-6,"MEAN_MOTION_DDOT":0},{"OBJECT_NAME":"STARLINK-5610","OBJECT_ID":"2023-094AC","EPOCH":"2025-07-29T04:14:49.018272","MEAN_MOTION":15.02533161,"ECCENTRICITY":0.0001071,"INCLINATION":43.0019,"RA_OF_ASC_NODE":152.1925,"ARG_OF_PERICENTER":264.4625,"MEAN_ANOMALY":95.6095,"EPHEMERIS_TYPE":0,"CLASSIFICATION_TYPE":"U","NORAD_CAT_ID":57244,"ELEMENT_SET_NO":999,"REV_AT_EPOCH":11364,"BSTAR":-1.1981e-5,"MEAN_MOTION_DOT":-3.65e-6,"MEAN_MOTION_DDOT":0},{"OBJECT_NAME":"STARLINK-5587","OBJECT_ID":"2023-094AD","EPOCH":"2025-07-29T04:19:36.604992","MEAN_MOTION":15.02536042,"ECCENTRICITY":0.0001022,"INCLINATION":43.0029,"RA_OF_ASC_NODE":152.2161,"ARG_OF_PERICENTER":263.3026,"MEAN_ANOMALY":96.77,"EPHEMERIS_TYPE":0,"CLASSIFICATION_TYPE":"U","NORAD_CAT_ID":57245,"ELEMENT_SET_NO":999,"REV_AT_EPOCH":11364,"BSTAR":2.7527e-7,"MEAN_MOTION_DOT":-2.0e-6,"MEAN_MOTION_DDOT":0},{"OBJECT_NAME":"STARLINK-5049","OBJECT_ID":"2023-094AE","EPOCH":"2025-07-29T13:12:25.182144","MEAN_MOTION":15.02529091,"ECCENTRICITY":0.0001331,"INCLINATION":43.0024,"RA_OF_ASC_NODE":149.8286,"ARG_OF_PERICENTER":267.5143,"MEAN_ANOMALY":92.5547,"EPHEMERIS_TYPE":0,"CLASSIFICATION_TYPE":"U","NORAD_CAT_ID":57246,"ELEMENT_SET_NO":999,"REV_AT_EPOCH":11370,"BSTAR":-8.95e-5,"MEAN_MOTION_DOT":-1.412e-5,"MEAN_MOTION_DDOT":0},{"OBJECT_NAME":"STARLINK-5039","OBJECT_ID":"2023-094AF","EPOCH":"2025-07-29T04:10:01.233696","MEAN_MOTION":15.0253412,"ECCENTRICITY":9.48e-5,"INCLINATION":43.0012,"RA_OF_ASC_NODE":152.1647,"ARG_OF_PERICENTER":263.7173,"MEAN_ANOMALY":96.3561,"EPHEMERIS_TYPE":0,"CLASSIFICATION_TYPE":"U","NORAD_CAT_ID":57247,"ELEMENT_SET_NO":999,"REV_AT_EPOCH":11364,"BSTAR":2.8476e-5,"MEAN_MOTION_DOT":1.81e-6,"MEAN_MOTION_DDOT":0},{"OBJECT_NAME":"STARLINK-5514","OBJECT_ID":"2023-094AG","EPOCH":"2025-07-29T05:40:57.158688","MEAN_MOTION":15.02534678,"ECCENTRICITY":0.0001181,"INCLINATION":43.0024,"RA_OF_ASC_NODE":151.7814,"ARG_OF_PERICENTER":265.1386,"MEAN_ANOMALY":94.9322,"EPHEMERIS_TYPE":0,"CLASSIFICATION_TYPE":"U","NORAD_CAT_ID":57248,"ELEMENT_SET_NO":999,"REV_AT_EPOCH":11365,"BSTAR":2.1779e-5,"MEAN_MOTION_DOT":9.1e-7,"MEAN_MOTION_DDOT":0},{"OBJECT_NAME":"STARLINK-5517","OBJECT_ID":"2023-094AH","EPOCH":"2025-07-29T05:37:44.754528","MEAN_MOTION":15.02528777,"ECCENTRICITY":0.0001098,"INCLINATION":43.0025,"RA_OF_ASC_NODE":151.7073,"ARG_OF_PERICENTER":264.3304,"MEAN_ANOMALY":95.7413,"EPHEMERIS_TYPE":0,"CLASSIFICATION_TYPE":"U","NORAD_CAT_ID":57249,"ELEMENT_SET_NO":999,"REV_AT_EPOCH":11365,"BSTAR":4.4875e-5,"MEAN_MOTION_DOT":4.03e-6,"MEAN_MOTION_DDOT":0},{"OBJECT_NAME":"STARLINK-5488","OBJECT_ID":"2023-094AJ","EPOCH":"2025-07-29T13:22:00.772896","MEAN_MOTION":15.02532503,"ECCENTRICITY":9.81e-5,"INCLINATION":43.004,"RA_OF_ASC_NODE":149.8813,"ARG_OF_PERICENTER":260.9772,"MEAN_ANOMALY":99.096,"EPHEMERIS_TYPE":0,"CLASSIFICATION_TYPE":"U","NORAD_CAT_ID":57250,"ELEMENT_SET_NO":999,"REV_AT_EPOCH":11370,"BSTAR":7.4274e-6,"MEAN_MOTION_DOT":-1.03e-6,"MEAN_MOTION_DDOT":0},{"OBJECT_NAME":"STARLINK-5513","OBJECT_ID":"2023-094AK","EPOCH":"2025-07-29T13:31:35.575680","MEAN_MOTION":15.02552243,"ECCENTRICITY":0.0001134,"INCLINATION":43.0036,"RA_OF_ASC_NODE":149.931,"ARG_OF_PERICENTER":268.0289,"MEAN_ANOMALY":92.0423,"EPHEMERIS_TYPE":0,"CLASSIFICATION_TYPE":"U","NORAD_CAT_ID":57251,"ELEMENT_SET_NO":999,"REV_AT_EPOCH":11388,"BSTAR":-0.00022351,"MEAN_MOTION_DOT":-3.223e-5,"MEAN_MOTION_DDOT":0},{"OBJECT_NAME":"STARLINK-5511","OBJECT_ID":"2023-094AL","EPOCH":"2025-07-29T13:10:49.210752","MEAN_MOTION":15.02536359,"ECCENTRICITY":9.04e-5,"INCLINATION":43.0029,"RA_OF_ASC_NODE":149.8253,"ARG_OF_PERICENTER":270.0571,"MEAN_ANOMALY":90.0168,"EPHEMERIS_TYPE":0,"CLASSIFICATION_TYPE":"U","NORAD_CAT_ID":57252,"ELEMENT_SET_NO":999,"REV_AT_EPOCH":11388,"BSTAR":3.0164e-5,"MEAN_MOTION_DOT":2.04e-6,"MEAN_MOTION_DDOT":0},{"OBJECT_NAME":"STARLINK-5516","OBJECT_ID":"2023-094AM","EPOCH":"2025-07-29T13:30:00.020736","MEAN_MOTION":15.02535671,"ECCENTRICITY":9.48e-5,"INCLINATION":43.0019,"RA_OF_ASC_NODE":149.9246,"ARG_OF_PERICENTER":271.5712,"MEAN_ANOMALY":88.5021,"EPHEMERIS_TYPE":0,"CLASSIFICATION_TYPE":"U","NORAD_CAT_ID":57253,"ELEMENT_SET_NO":999,"REV_AT_EPOCH":11370,"BSTAR":2.0357e-5,"MEAN_MOTION_DOT":7.1e-7,"MEAN_MOTION_DDOT":0},{"OBJECT_NAME":"STARLINK-5490","OBJECT_ID":"2023-094AN","EPOCH":"2025-07-29T13:02:49.836768","MEAN_MOTION":15.02534638,"ECCENTRICITY":0.0001118,"INCLINATION":43.0022,"RA_OF_ASC_NODE":149.7832,"ARG_OF_PERICENTER":269.4594,"MEAN_ANOMALY":90.612,"EPHEMERIS_TYPE":0,"CLASSIFICATION_TYPE":"U","NORAD_CAT_ID":57254,"ELEMENT_SET_NO":999,"REV_AT_EPOCH":11370,"BSTAR":3.8698e-5,"MEAN_MOTION_DOT":3.19e-6,"MEAN_MOTION_DDOT":0},{"OBJECT_NAME":"STARLINK-5481","OBJECT_ID":"2023-094AP","EPOCH":"2025-07-29T13:06:02.025792","MEAN_MOTION":15.0254591,"ECCENTRICITY":7.62e-5,"INCLINATION":43.0017,"RA_OF_ASC_NODE":149.8002,"ARG_OF_PERICENTER":288.06,"MEAN_ANOMALY":72.0159,"EPHEMERIS_TYPE":0,"CLASSIFICATION_TYPE":"U","NORAD_CAT_ID":57255,"ELEMENT_SET_NO":999,"REV_AT_EPOCH":11370,"BSTAR":6.9578e-5,"MEAN_MOTION_DOT":7.37e-6,"MEAN_MOTION_DDOT":0},{"OBJECT_NAME":"STARLINK-5512","OBJECT_ID":"2023-094AQ","EPOCH":"2025-07-29T12:37:15.639744","MEAN_MOTION":15.02535454,"ECCENTRICITY":0.0001102,"INCLINATION":43.0029,"RA_OF_ASC_NODE":149.668,"ARG_OF_PERICENTER":268.4184,"MEAN_ANOMALY":91.6533,"EPHEMERIS_TYPE":0,"CLASSIFICATION_TYPE":"U","NORAD_CAT_ID":57256,"ELEMENT_SET_NO":999,"REV_AT_EPOCH":11370,"BSTAR":3.4315e-5,"MEAN_MOTION_DOT":2.6e-6,"MEAN_MOTION_DDOT":0}]
