STARLINK-6351           
1 57240U 23094Y   25210.17473177  .00000089  00000+0  21626-4 0  9990
2 57240  43.0027 152.1747 0001014 271.7792  88.2934 15.02537186113821
STARLINK-6349           
1 57241U 23094Z   25210.91931158 -.00000103  00000+0  74324-5 0  9993
2 57241  43.0041 148.3069 0001076 262.9618  97.1102 15.02540922113759
STARLINK-6306           
1 57242U 23094AA  25210.51711521  .00000015  00000+0  16140-4 0  9992
2 57242  43.0023 150.4457 0000948 268.0268  92.0466 15.02534070113697
STARLINK-6346           
1 57243U 23094AB  25210.51933358  .00000770  00000+0  72042-4 0  9998
2 57243  43.0047 150.4604 0000981 267.2129  92.8601 15.02534422113692
STARLINK-5610           
1 57244U 23094AC  25210.17695623 -.00000365  00000+0 -11981-4 0  9998
2 57244  43.0019 152.1925 0001071 264.4625  95.6095 15.02533161113640
STARLINK-5587           
1 57245U 23094AD  25210.18028478 -.00000200  00000+0  27527-6 0  9990
2 57245  43.0029 152.2161 0001022 263.3026  96.7700 15.02536042113640
STARLINK-5049           
1 57246U 23094AE  25210.55029146 -.00001412  00000+0 -89500-4 0  9999
2 57246  43.0024 149.8286 0001331 267.5143  92.5547 15.02529091113701
STARLINK-5039           
1 57247U 23094AF  25210.17362539  .00000181  00000+0  28476-4 0  9999
2 57247  43.0012 152.1647 0000948 263.7173  96.3561 15.02534120113641
STARLINK-5514           
1 57248U 23094AG  25210.23677267  .00000091  00000+0  21779-4 0  9993
2 57248  43.0024 151.7814 0001181 265.1386  94.9322 15.02534678113656
STARLINK-5517           
1 57249U 23094AH  25210.23454577  .00000403  00000+0  44875-4 0  9990
2 57249  43.0025 151.7073 0001098 264.3304  95.7413 15.02528777113656
STARLINK-5488           
1 57250U 23094AJ  25210.55695339 -.00000103  00000+0  74274-5 0  9995
2 57250  43.0040 149.8813 0000981 260.9772  99.0960 15.02532503113708
STARLINK-5513           
1 57251U 23094AK  25210.56360620 -.00003223  00000+0 -22351-3 0  9993
2 57251  43.0036 149.9310 0001134 268.0289  92.0423 15.02552243113889
STARLINK-5511           
1 57252U 23094AL  25210.54918068  .00000204  00000+0  30164-4 0  9993
2 57252  43.0029 149.8253 0000904 270.0571  90.0168 15.02536359113882
STARLINK-5516           
1 57253U 23094AM  25210.56250024  .00000071  00000+0  20357-4 0  9992
2 57253  43.0019 149.9246 0000948 271.5712  88.5021 15.02535671113703
STARLINK-5490           
1 57254U 23094AN  25210.54363237  .00000319  00000+0  38698-4 0  9994
2 57254  43.0022 149.7832 0001118 269.4594  90.6120 15.02534638113707
STARLINK-5481           
1 57255U 23094AP  25210.54585678  .00000737  00000+0  69578-4 0  9995
2 57255  43.0017 149.8002 0000762 288.0600  72.0159 15.02545910113702
STARLINK-5512           
1 57256U 23094AQ  25210.52587546  .00000260  00000+0  34315-4 0  9992
2 57256  43.0029 149.6680 0001102 268.4184  91.6533 15.02535454113709
